{
  "type": "FeatureCollection",
  "features": [
    {
      "type": "Feature",
      "properties": {
        "norad_id": 34350,
        "name": "IRIDIUM 33 DEB",
        "group": "iridium-33-debris",
        "lat": 12.71849768690935,
        "lon": 5.083989996083473,
        "alt_km": 752.8906110545786,
        "timestamp": "2025-12-09T09:46:48.030605+00:00",
        "meta_object_name": "IRIDIUM 33 DEB",
        "meta_object_id": "1997-051ES",
        "meta_epoch": "2025-12-09T01:39:34.597152",
        "meta_mean_motion": 14.45373278,
        "meta_eccentricity": 0.0022473,
        "meta_inclination": 86.3277,
        "meta_ra_of_asc_node": 4.4002,
        "meta_arg_of_pericenter": 146.6467,
        "meta_mean_anomaly": 266.9742,
        "meta_ephemeris_type": 0,
        "meta_classification_type": "U",
        "meta_norad_cat_id": 34350,
        "meta_element_set_no": 999,
        "meta_rev_at_epoch": 88240,
        "meta_bstar": 0.00045977,
        "meta_mean_motion_dot": 1.641e-05,
        "meta_mean_motion_ddot": 0,
        "tle_line1": "1 34350U 97051ES  25343.06915043  .00001641  00000+0  45977-3 0  9998",
        "tle_line2": "2 34350  86.3277   4.4002 0022473 146.6467 266.9742 14.45373278882404"
      },
      "geometry": {
        "type": "Point",
        "coordinates": [
          5.083989996083473,
          12.71849768690935
        ]
      }
    },
    {
      "type": "Feature",
      "properties": {
        "norad_id": 34366,
        "name": "IRIDIUM 33 DEB",
        "group": "iridium-33-debris",
        "lat": -57.49558473915896,
        "lon": -123.51825007770225,
        "alt_km": 719.0345945293157,
        "timestamp": "2025-12-09T09:46:48.030615+00:00",
        "meta_object_name": "IRIDIUM 33 DEB",
        "meta_object_id": "1997-051FJ",
        "meta_epoch": "2025-12-09T03:52:20.332416",
        "meta_mean_motion": 14.54006735,
        "meta_eccentricity": 0.0022203,
        "meta_inclination": 86.3691,
        "meta_ra_of_asc_node": 50.8695,
        "meta_arg_of_pericenter": 150.9787,
        "meta_mean_anomaly": 238.7279,
        "meta_ephemeris_type": 0,
        "meta_classification_type": "U",
        "meta_norad_cat_id": 34366,
        "meta_element_set_no": 999,
        "meta_rev_at_epoch": 88130,
        "meta_bstar": 0.0013456,
        "meta_mean_motion_dot": 5.71e-05,
        "meta_mean_motion_ddot": 0,
        "tle_line1": "1 34366U 97051FJ  25343.16134644  .00005710  00000+0  13456-2 0  9993",
        "tle_line2": "2 34366  86.3691  50.8695 0022203 150.9787 238.7279 14.54006735881309"
      },
      "geometry": {
        "type": "Point",
        "coordinates": [
          -123.51825007770225,
          -57.49558473915896
        ]
      }
    },
    {
      "type": "Feature",
      "properties": {
        "norad_id": 34375,
        "name": "IRIDIUM 33 DEB",
        "group": "iridium-33-debris",
        "lat": -45.4543198459515,
        "lon": 7.674447402720449,
        "alt_km": 836.0083362071773,
        "timestamp": "2025-12-09T09:46:48.030626+00:00",
        "meta_object_name": "IRIDIUM 33 DEB",
        "meta_object_id": "1997-051FT",
        "meta_epoch": "2025-12-09T01:01:12.012960",
        "meta_mean_motion": 14.17981407,
        "meta_eccentricity": 0.0103035,
        "meta_inclination": 86.4326,
        "meta_ra_of_asc_node": 184.1877,
        "meta_arg_of_pericenter": 138.3544,
        "meta_mean_anomaly": 23.8755,
        "meta_ephemeris_type": 0,
        "meta_classification_type": "U",
        "meta_norad_cat_id": 34375,
        "meta_element_set_no": 999,
        "meta_rev_at_epoch": 86659,
        "meta_bstar": 0.00056641,
        "meta_mean_motion_dot": 1.241e-05,
        "meta_mean_motion_ddot": 0,
        "tle_line1": "1 34375U 97051FT  25343.04250015  .00001241  00000+0  56641-3 0  9990",
        "tle_line2": "2 34375  86.4326 184.1877 0103035 138.3544  23.8755 14.17981407866595"
      },
      "geometry": {
        "type": "Point",
        "coordinates": [
          7.674447402720449,
          -45.4543198459515
        ]
      }
    },
    {
      "type": "Feature",
      "properties": {
        "norad_id": 34376,
        "name": "IRIDIUM 33 DEB",
        "group": "iridium-33-debris",
        "lat": 62.53460254541276,
        "lon": 15.191930104142834,
        "alt_km": 687.127635489449,
        "timestamp": "2025-12-09T09:46:48.030637+00:00",
        "meta_object_name": "IRIDIUM 33 DEB",
        "meta_object_id": "1997-051FU",
        "meta_epoch": "2025-12-09T01:16:56.149824",
        "meta_mean_motion": 14.62483707,
        "meta_eccentricity": 0.002673,
        "meta_inclination": 86.2984,
        "meta_ra_of_asc_node": 8.1966,
        "meta_arg_of_pericenter": 179.1594,
        "meta_mean_anomaly": 180.9667,
        "meta_ephemeris_type": 0,
        "meta_classification_type": "U",
        "meta_norad_cat_id": 34376,
        "meta_element_set_no": 999,
        "meta_rev_at_epoch": 87953,
        "meta_bstar": 0.0016761,
        "meta_mean_motion_dot": 8.56e-05,
        "meta_mean_motion_ddot": 0,
        "tle_line1": "1 34376U 97051FU  25343.05342766  .00008560  00000+0  16761-2 0  9996",
        "tle_line2": "2 34376  86.2984   8.1966 0026730 179.1594 180.9667 14.62483707879537"
      },
      "geometry": {
        "type": "Point",
        "coordinates": [
          15.191930104142834,
          62.53460254541276
        ]
      }
    },
    {
      "type": "Feature",
      "properties": {
        "norad_id": 34486,
        "name": "IRIDIUM 33 DEB",
        "group": "iridium-33-debris",
        "lat": -62.60981821071646,
        "lon": -159.44642370909742,
        "alt_km": 592.5545825535537,
        "timestamp": "2025-12-09T09:46:48.030664+00:00",
        "meta_object_name": "IRIDIUM 33 DEB",
        "meta_object_id": "1997-051GB",
        "meta_epoch": "2025-12-09T02:32:24.431712",
        "meta_mean_motion": 14.95535062,
        "meta_eccentricity": 0.0013377,
        "meta_inclination": 86.394,
        "meta_ra_of_asc_node": 13.7018,
        "meta_arg_of_pericenter": 124.1656,
        "meta_mean_anomaly": 295.4203,
        "meta_ephemeris_type": 0,
        "meta_classification_type": "U",
        "meta_norad_cat_id": 34486,
        "meta_element_set_no": 999,
        "meta_rev_at_epoch": 88932,
        "meta_bstar": 0.0024816,
        "meta_mean_motion_dot": 0.00027645,
        "meta_mean_motion_ddot": 0,
        "tle_line1": "1 34486U 97051GB  25343.10583833  .00027645  00000+0  24816-2 0  9991",
        "tle_line2": "2 34486  86.3940  13.7018 0013377 124.1656 295.4203 14.95535062889328"
      },
      "geometry": {
        "type": "Point",
        "coordinates": [
          -159.44642370909742,
          -62.60981821071646
        ]
      }
    },
    {
      "type": "Feature",
      "properties": {
        "norad_id": 34487,
        "name": "IRIDIUM 33 DEB",
        "group": "iridium-33-debris",
        "lat": 13.262337222139253,
        "lon": -167.05156289586793,
        "alt_km": 728.5923017881032,
        "timestamp": "2025-12-09T09:46:48.030676+00:00",
        "meta_object_name": "IRIDIUM 33 DEB",
        "meta_object_id": "1997-051GC",
        "meta_epoch": "2025-12-09T02:36:24.393024",
        "meta_mean_motion": 14.43208677,
        "meta_eccentricity": 0.0032494,
        "meta_inclination": 86.3437,
        "meta_ra_of_asc_node": 13.9406,
        "meta_arg_of_pericenter": 139.8025,
        "meta_mean_anomaly": 274.7382,
        "meta_ephemeris_type": 0,
        "meta_classification_type": "U",
        "meta_norad_cat_id": 34487,
        "meta_element_set_no": 999,
        "meta_rev_at_epoch": 88196,
        "meta_bstar": 0.00027735,
        "meta_mean_motion_dot": 9.58e-06,
        "meta_mean_motion_ddot": 0,
        "tle_line1": "1 34487U 97051GC  25343.10861566  .00000958  00000+0  27735-3 0  9996",
        "tle_line2": "2 34487  86.3437  13.9406 0032494 139.8025 274.7382 14.43208677881969"
      },
      "geometry": {
        "type": "Point",
        "coordinates": [
          -167.05156289586793,
          13.262337222139253
        ]
      }
    },
    {
      "type": "Feature",
      "properties": {
        "norad_id": 34488,
        "name": "IRIDIUM 33 DEB",
        "group": "iridium-33-debris",
        "lat": -9.719390635688912,
        "lon": 128.0925893871616,
        "alt_km": 492.57357262545884,
        "timestamp": "2025-12-09T09:46:48.030688+00:00",
        "meta_object_name": "IRIDIUM 33 DEB",
        "meta_object_id": "1997-051GD",
        "meta_epoch": "2025-12-08T21:57:07.266816",
        "meta_mean_motion": 15.27997887,
        "meta_eccentricity": 0.0014352,
        "meta_inclination": 86.3246,
        "meta_ra_of_asc_node": 307.7053,
        "meta_arg_of_pericenter": 57.4212,
        "meta_mean_anomaly": 302.8418,
        "meta_ephemeris_type": 0,
        "meta_classification_type": "U",
        "meta_norad_cat_id": 34488,
        "meta_element_set_no": 999,
        "meta_rev_at_epoch": 89181,
        "meta_bstar": 0.0052155,
        "meta_mean_motion_dot": 0.00145336,
        "meta_mean_motion_ddot": 0,
        "tle_line1": "1 34488U 97051GD  25342.91466744  .00145336  00000+0  52155-2 0  9997",
        "tle_line2": "2 34488  86.3246 307.7053 0014352  57.4212 302.8418 15.27997887891815"
      },
      "geometry": {
        "type": "Point",
        "coordinates": [
          128.0925893871616,
          -9.719390635688912
        ]
      }
    }
  ]
}